     2.11           N: GPS NAV DATA                         RINEX VERSION / TYPE
teqc  2019Feb25                         20221121 12:28:54UTCPGM / RUN BY / DATE
OSX ker:10.11.6|Core i5|gcc 4.3 -m64|OSX ker:10.10+|=+      COMMENT
    1.2107D-08 -7.4506D-09 -1.1921D-07  5.9605D-08          ION ALPHA
    9.6256D+04 -3.2768D+04 -1.9661D+05  1.9661D+05          ION BETA
    6.519258022308D-09 2.131628207280D-14    61440     1556 DELTA-UTC: A0,A1,T,W
                                                            END OF HEADER
29 09 10 31 10  0  0.0 7.049599662423D-05 3.069544618484D-12 0.000000000000D+00
    8.300000000000D+01-4.765625000000D+01 4.607691928864D-09 2.152837456173D+00
   -2.520158886909D-06 2.932051196694D-03 8.907169103622D-06 5.153581838608D+03
    5.544000000000D+05 3.166496753693D-08 2.107801411921D+00 2.793967723846D-08
    9.599519554978D-01 2.055937500000D+02-1.271368556964D+00-8.000690403726D-09
   -5.857386840816D-10 1.000000000000D+00 1.555000000000D+03 0.000000000000D+00
    2.000000000000D+00 0.000000000000D+00-8.847564458847D-09 8.300000000000D+01
    5.500380000000D+05 4.000000000000D+00
23 09 10 31 10  0  0.0 3.867284394801D-04-5.684341886081D-13 0.000000000000D+00
    2.900000000000D+01-1.051562500000D+02 4.318037006431D-09-1.673543961161D+00
   -5.727633833885D-06 6.373240030371D-03 8.149072527885D-06 5.153763301849D+03
    5.544000000000D+05 1.676380634308D-08-1.054688787976D+00-8.381903171539D-08
    9.693343381746D-01 2.289062500000D+02 3.000834304040D+00-8.107837723985D-09
   -2.385813664430D-10 1.000000000000D+00 1.555000000000D+03 0.000000000000D+00
    2.000000000000D+00 0.000000000000D+00-2.002343535423D-08 2.900000000000D+01
    5.512980000000D+05 4.000000000000D+00
 2 09 10 31 10  0  0.0 1.865052618086D-04 3.979039320257D-12 0.000000000000D+00
    4.400000000000D+01 8.115625000000D+01 4.584833833875D-09-1.565084582592D+00
    4.287809133530D-06 9.150972589850D-03 1.141987740994D-05 5.153736856461D+03
    5.544000000000D+05-7.450580596924D-08 3.112520658990D+00-1.192092895508D-07
    9.411358636635D-01 1.493437500000D+02 2.909725792204D+00-8.076407843376D-09
    2.621537768999D-10 1.000000000000D+00 1.555000000000D+03 0.000000000000D+00
    2.000000000000D+00 0.000000000000D+00-1.722946763039D-08 4.400000000000D+01
    5.513580000000D+05 4.000000000000D+00
